[{
    "OBJECT_NAME": "KANOPUS-V-IK",
    "OBJECT_ID": "2017-042A",
    "EPOCH": "2023-06-19T03:57:48.595392",
    "MEAN_MOTION": 15.21354017,
    "ECCENTRICITY": 0.0001797,
    "INCLINATION": 97.4154,
    "RA_OF_ASC_NODE": 78.3515,
    "ARG_OF_PERICENTER": 85.8331,
    "MEAN_ANOMALY": 274.311,
    "EPHEMERIS_TYPE": 0,
    "CLASSIFICATION_TYPE": "U",
    "NORAD_CAT_ID": 42825,
    "ELEMENT_SET_NO": 999,
    "REV_AT_EPOCH": 32890,
    "BSTAR": 0.0001451,
    "MEAN_MOTION_DOT": 3.181e-5,
    "MEAN_MOTION_DDOT": 0
},{
    "OBJECT_NAME": "NORSAT 1",
    "OBJECT_ID": "2017-042B",
    "EPOCH": "2023-06-18T19:17:00.592512",
    "MEAN_MOTION": 14.94583821,
    "ECCENTRICITY": 0.0012989,
    "INCLINATION": 97.3923,
    "RA_OF_ASC_NODE": 7.9267,
    "ARG_OF_PERICENTER": 212.1318,
    "MEAN_ANOMALY": 147.9113,
    "EPHEMERIS_TYPE": 0,
    "CLASSIFICATION_TYPE": "U",
    "NORAD_CAT_ID": 42826,
    "ELEMENT_SET_NO": 999,
    "REV_AT_EPOCH": 32276,
    "BSTAR": 0.00028405,
    "MEAN_MOTION_DOT": 3.025e-5,
    "MEAN_MOTION_DDOT": 0
},{
    "OBJECT_NAME": "NORSAT 2",
    "OBJECT_ID": "2017-042D",
    "EPOCH": "2023-06-18T19:02:52.579104",
    "MEAN_MOTION": 14.95763723,
    "ECCENTRICITY": 0.0012151,
    "INCLINATION": 97.394,
    "RA_OF_ASC_NODE": 10.4753,
    "ARG_OF_PERICENTER": 208.2571,
    "MEAN_ANOMALY": 151.7993,
    "EPHEMERIS_TYPE": 0,
    "CLASSIFICATION_TYPE": "U",
    "NORAD_CAT_ID": 42828,
    "ELEMENT_SET_NO": 999,
    "REV_AT_EPOCH": 32286,
    "BSTAR": 0.00033596,
    "MEAN_MOTION_DOT": 3.697e-5,
    "MEAN_MOTION_DDOT": 0
},{
    "OBJECT_NAME": "TECHNOSAT",
    "OBJECT_ID": "2017-042E",
    "EPOCH": "2023-06-18T23:57:29.819520",
    "MEAN_MOTION": 14.93634283,
    "ECCENTRICITY": 0.0012516,
    "INCLINATION": 97.3885,
    "RA_OF_ASC_NODE": 7.3336,
    "ARG_OF_PERICENTER": 214.2129,
    "MEAN_ANOMALY": 145.8287,
    "EPHEMERIS_TYPE": 0,
    "CLASSIFICATION_TYPE": "U",
    "NORAD_CAT_ID": 42829,
    "ELEMENT_SET_NO": 999,
    "REV_AT_EPOCH": 32276,
    "BSTAR": 0.0001862,
    "MEAN_MOTION_DOT": 1.917e-5,
    "MEAN_MOTION_DDOT": 0
},{
    "OBJECT_NAME": "FLYING LAPTOP",
    "OBJECT_ID": "2017-042G",
    "EPOCH": "2023-06-19T03:59:53.395872",
    "MEAN_MOTION": 14.93097468,
    "ECCENTRICITY": 0.0012478,
    "INCLINATION": 97.3909,
    "RA_OF_ASC_NODE": 7.7929,
    "ARG_OF_PERICENTER": 214.2447,
    "MEAN_ANOMALY": 145.797,
    "EPHEMERIS_TYPE": 0,
    "CLASSIFICATION_TYPE": "U",
    "NORAD_CAT_ID": 42831,
    "ELEMENT_SET_NO": 999,
    "REV_AT_EPOCH": 32278,
    "BSTAR": 0.00018613,
    "MEAN_MOTION_DOT": 1.89e-5,
    "MEAN_MOTION_DDOT": 0
},{
    "OBJECT_NAME": "WNISAT 1R",
    "OBJECT_ID": "2017-042L",
    "EPOCH": "2023-06-18T19:44:20.954400",
    "MEAN_MOTION": 14.93170421,
    "ECCENTRICITY": 0.0011821,
    "INCLINATION": 97.3882,
    "RA_OF_ASC_NODE": 7.3724,
    "ARG_OF_PERICENTER": 212.5041,
    "MEAN_ANOMALY": 147.5453,
    "EPHEMERIS_TYPE": 0,
    "CLASSIFICATION_TYPE": "U",
    "NORAD_CAT_ID": 42835,
    "ELEMENT_SET_NO": 999,
    "REV_AT_EPOCH": 32275,
    "BSTAR": 0.00018686,
    "MEAN_MOTION_DOT": 1.9e-5,
    "MEAN_MOTION_DDOT": 0
},{
    "OBJECT_NAME": "LEMUR-2-GREENBERG",
    "OBJECT_ID": "2017-042N",
    "EPOCH": "2023-06-18T20:02:22.356672",
    "MEAN_MOTION": 14.97321767,
    "ECCENTRICITY": 0.001116,
    "INCLINATION": 97.3902,
    "RA_OF_ASC_NODE": 12.2528,
    "ARG_OF_PERICENTER": 198.0602,
    "MEAN_ANOMALY": 162.0226,
    "EPHEMERIS_TYPE": 0,
    "CLASSIFICATION_TYPE": "U",
    "NORAD_CAT_ID": 42837,
    "ELEMENT_SET_NO": 999,
    "REV_AT_EPOCH": 32301,
    "BSTAR": 0.00048115,
    "MEAN_MOTION_DOT": 5.536e-5,
    "MEAN_MOTION_DDOT": 0
},{
    "OBJECT_NAME": "LEMUR-2-ANDIS",
    "OBJECT_ID": "2017-042P",
    "EPOCH": "2023-06-18T19:51:38.737152",
    "MEAN_MOTION": 14.97294931,
    "ECCENTRICITY": 0.0011339,
    "INCLINATION": 97.3885,
    "RA_OF_ASC_NODE": 12.1305,
    "ARG_OF_PERICENTER": 198.8643,
    "MEAN_ANOMALY": 161.2161,
    "EPHEMERIS_TYPE": 0,
    "CLASSIFICATION_TYPE": "U",
    "NORAD_CAT_ID": 42838,
    "ELEMENT_SET_NO": 999,
    "REV_AT_EPOCH": 32301,
    "BSTAR": 0.00043591,
    "MEAN_MOTION_DOT": 5.007e-5,
    "MEAN_MOTION_DDOT": 0
},{
    "OBJECT_NAME": "LEMUR-2-MONSON",
    "OBJECT_ID": "2017-042Q",
    "EPOCH": "2023-06-18T20:14:15.983520",
    "MEAN_MOTION": 14.96956064,
    "ECCENTRICITY": 0.0010838,
    "INCLINATION": 97.3913,
    "RA_OF_ASC_NODE": 11.8409,
    "ARG_OF_PERICENTER": 196.6274,
    "MEAN_ANOMALY": 163.4595,
    "EPHEMERIS_TYPE": 0,
    "CLASSIFICATION_TYPE": "U",
    "NORAD_CAT_ID": 42839,
    "ELEMENT_SET_NO": 999,
    "REV_AT_EPOCH": 32298,
    "BSTAR": 0.00048042,
    "MEAN_MOTION_DOT": 5.475e-5,
    "MEAN_MOTION_DDOT": 0
},{
    "OBJECT_NAME": "LEMUR-2-FURIAUS",
    "OBJECT_ID": "2017-042R",
    "EPOCH": "2023-06-18T19:33:04.089888",
    "MEAN_MOTION": 14.96897303,
    "ECCENTRICITY": 0.0011171,
    "INCLINATION": 97.3932,
    "RA_OF_ASC_NODE": 12.1882,
    "ARG_OF_PERICENTER": 202.8382,
    "MEAN_ANOMALY": 157.2345,
    "EPHEMERIS_TYPE": 0,
    "CLASSIFICATION_TYPE": "U",
    "NORAD_CAT_ID": 42840,
    "ELEMENT_SET_NO": 999,
    "REV_AT_EPOCH": 32297,
    "BSTAR": 0.00035724,
    "MEAN_MOTION_DOT": 4.051e-5,
    "MEAN_MOTION_DDOT": 0
},{
    "OBJECT_NAME": "LEMUR-2-PETERG",
    "OBJECT_ID": "2017-042S",
    "EPOCH": "2023-06-18T12:30:10.621728",
    "MEAN_MOTION": 14.96975081,
    "ECCENTRICITY": 0.0010841,
    "INCLINATION": 97.3962,
    "RA_OF_ASC_NODE": 13.2152,
    "ARG_OF_PERICENTER": 194.4697,
    "MEAN_ANOMALY": 165.6217,
    "EPHEMERIS_TYPE": 0,
    "CLASSIFICATION_TYPE": "U",
    "NORAD_CAT_ID": 42841,
    "ELEMENT_SET_NO": 999,
    "REV_AT_EPOCH": 32300,
    "BSTAR": 0.00056083,
    "MEAN_MOTION_DOT": 6.405e-5,
    "MEAN_MOTION_DDOT": 0
},{
    "OBJECT_NAME": "LEMUR-2-DEMBITZ",
    "OBJECT_ID": "2017-042T",
    "EPOCH": "2023-06-18T19:45:56.015136",
    "MEAN_MOTION": 14.9728879,
    "ECCENTRICITY": 0.001102,
    "INCLINATION": 97.3922,
    "RA_OF_ASC_NODE": 13.4283,
    "ARG_OF_PERICENTER": 197.0941,
    "MEAN_ANOMALY": 162.9912,
    "EPHEMERIS_TYPE": 0,
    "CLASSIFICATION_TYPE": "U",
    "NORAD_CAT_ID": 42842,
    "ELEMENT_SET_NO": 999,
    "REV_AT_EPOCH": 32306,
    "BSTAR": 0.00040081,
    "MEAN_MOTION_DOT": 4.598e-5,
    "MEAN_MOTION_DDOT": 0
},{
    "OBJECT_NAME": "NANOACE",
    "OBJECT_ID": "2017-042V",
    "EPOCH": "2023-06-18T11:43:04.827648",
    "MEAN_MOTION": 14.96856662,
    "ECCENTRICITY": 0.0010843,
    "INCLINATION": 97.3859,
    "RA_OF_ASC_NODE": 11.6095,
    "ARG_OF_PERICENTER": 192.2004,
    "MEAN_ANOMALY": 167.8958,
    "EPHEMERIS_TYPE": 0,
    "CLASSIFICATION_TYPE": "U",
    "NORAD_CAT_ID": 42844,
    "ELEMENT_SET_NO": 999,
    "REV_AT_EPOCH": 32298,
    "BSTAR": 0.00039735,
    "MEAN_MOTION_DOT": 4.507e-5,
    "MEAN_MOTION_DDOT": 0
},{
    "OBJECT_NAME": "LEMUR-2-ZACHARY",
    "OBJECT_ID": "2017-042W",
    "EPOCH": "2023-06-18T20:05:53.068128",
    "MEAN_MOTION": 14.99077994,
    "ECCENTRICITY": 0.0011338,
    "INCLINATION": 97.3795,
    "RA_OF_ASC_NODE": 12.6551,
    "ARG_OF_PERICENTER": 191.3238,
    "MEAN_ANOMALY": 168.7732,
    "EPHEMERIS_TYPE": 0,
    "CLASSIFICATION_TYPE": "U",
    "NORAD_CAT_ID": 42845,
    "ELEMENT_SET_NO": 999,
    "REV_AT_EPOCH": 32314,
    "BSTAR": 0.00057195,
    "MEAN_MOTION_DOT": 6.901e-5,
    "MEAN_MOTION_DDOT": 0
}]