KANOPUS-V-IK            
1 42825U 17042A   23170.16514578  .00003181  00000+0  14510-3 0  9991
2 42825  97.4154  78.3515 0001797  85.8331 274.3110 15.21354017328903
NORSAT 1                
1 42826U 17042B   23169.80347908  .00003025  00000+0  28405-3 0  9997
2 42826  97.3923   7.9267 0012989 212.1318 147.9113 14.94583821322766
NORSAT 2                
1 42828U 17042D   23169.79366411  .00003697  00000+0  33596-3 0  9999
2 42828  97.3940  10.4753 0012151 208.2571 151.7993 14.95763723322866
TECHNOSAT               
1 42829U 17042E   23169.99826180  .00001917  00000+0  18620-3 0  9990
2 42829  97.3885   7.3336 0012516 214.2129 145.8287 14.93634283322763
FLYING LAPTOP           
1 42831U 17042G   23170.16659023  .00001890  00000+0  18613-3 0  9996
2 42831  97.3909   7.7929 0012478 214.2447 145.7970 14.93097468322783
WNISAT 1R               
1 42835U 17042L   23169.82246475  .00001900  00000+0  18686-3 0  9996
2 42835  97.3882   7.3724 0011821 212.5041 147.5453 14.93170421322752
LEMUR-2-GREENBERG       
1 42837U 17042N   23169.83498098  .00005536  00000+0  48115-3 0  9998
2 42837  97.3902  12.2528 0011160 198.0602 162.0226 14.97321767323016
LEMUR-2-ANDIS           
1 42838U 17042P   23169.82753168  .00005007  00000+0  43591-3 0  9996
2 42838  97.3885  12.1305 0011339 198.8643 161.2161 14.97294931323011
LEMUR-2-MONSON          
1 42839U 17042Q   23169.84324055  .00005475  00000+0  48042-3 0  9993
2 42839  97.3913  11.8409 0010838 196.6274 163.4595 14.96956064322985
LEMUR-2-FURIAUS         
1 42840U 17042R   23169.81463067  .00004051  00000+0  35724-3 0  9991
2 42840  97.3932  12.1882 0011171 202.8382 157.2345 14.96897303322971
LEMUR-2-PETERG          
1 42841U 17042S   23169.52095627  .00006405  00000+0  56083-3 0  9999
2 42841  97.3962  13.2152 0010841 194.4697 165.6217 14.96975081323001
LEMUR-2-DEMBITZ         
1 42842U 17042T   23169.82356499  .00004598  00000+0  40081-3 0  9992
2 42842  97.3922  13.4283 0011020 197.0941 162.9912 14.97288790323069
NANOACE                 
1 42844U 17042V   23169.48825032  .00004507  00000+0  39735-3 0  9994
2 42844  97.3859  11.6095 0010843 192.2004 167.8958 14.96856662322982
LEMUR-2-ZACHARY         
1 42845U 17042W   23169.83741977  .00006901  00000+0  57195-3 0  9999
2 42845  97.3795  12.6551 0011338 191.3238 168.7732 14.99077994323144
